{"type": "FeatureCollection", "features": [ {"type": "Feature", "properties": {"norad_id": 58662, "name": "TIANMU-1 21", "group": "weather", "lat": -43.57909757703128, "lon": 109.48426712302815, "alt_km": 476.0198777615551, "timestamp": "2025-12-14T22:38:40.403688+00:00", "meta": {"OBJECT_NAME": "TIANMU-1 21", "OBJECT_ID": "2023-208C", "EPOCH": "2025-12-14T07:09:23.526144", "MEAN_MOTION": 15.3159579, "ECCENTRICITY": 0.00058937, "INCLINATION": 97.437, "RA_OF_ASC_NODE": 101.6963, "ARG_OF_PERICENTER": 253.5757, "MEAN_ANOMALY": 106.4837, "EPHEMERIS_TYPE": 0, "CLASSIFICATION_TYPE": "U", "NORAD_CAT_ID": 58662, "ELEMENT_SET_NO": 999, "REV_AT_EPOCH": 10923, "BSTAR": 0.0003898386, "MEAN_MOTION_DOT": 0.00011827, "MEAN_MOTION_DDOT": 0}, "tle": {"line1": "1 58662U 23208C   25348.29818896  .00011827  00000+0  38984-3 0  9998", "line2": "2 58662  97.4370 101.6963 0005893 253.5757 106.4837 15.31595790109233"}}, "geometry": {"type": "Point", "coordinates": [109.48426712302815, -43.57909757703128]}}, {"type": "Feature", "properties": {"norad_id": 58663, "name": "TIANMU-1 22", "group": "weather", "lat": -26.77886189400283, "lon": -83.74635408439657, "alt_km": 488.0152619228111, "timestamp": "2025-12-14T22:38:40.403698+00:00", "meta": {"OBJECT_NAME": "TIANMU-1 22", "OBJECT_ID": "2023-208D", "EPOCH": "2025-12-14T07:35:34.158048", "MEAN_MOTION": 15.27640821, "ECCENTRICITY": 0.00026511, "INCLINATION": 97.4378, "RA_OF_ASC_NODE": 99.4084, "ARG_OF_PERICENTER": 278.6902, "MEAN_ANOMALY": 81.4037, "EPHEMERIS_TYPE": 0, "CLASSIFICATION_TYPE": "U", "NORAD_CAT_ID": 58663, "ELEMENT_SET_NO": 999, "REV_AT_EPOCH": 10907, "BSTAR": 0.00035716905, "MEAN_MOTION_DOT": 9.58e-05, "MEAN_MOTION_DDOT": 0}, "tle": {"line1": "1 58663U 23208D   25348.31636757  .00009580  00000+0  35717-3 0  9990", "line2": "2 58663  97.4378  99.4084 0002651 278.6902  81.4037 15.27640821109076"}}, "geometry": {"type": "Point", "coordinates": [-83.74635408439657, -26.77886189400283]}}, {"type": "Feature", "properties": {"norad_id": 58700, "name": "TIANMU-1 15", "group": "weather", "lat": -45.74169011161721, "lon": 178.1366430589508, "alt_km": 494.8047235510494, "timestamp": "2025-12-14T22:38:40.403708+00:00", "meta": {"OBJECT_NAME": "TIANMU-1 15", "OBJECT_ID": "2024-004A", "EPOCH": "2025-12-11T12:56:40.540704", "MEAN_MOTION": 15.24670451, "ECCENTRICITY": 0.00052437, "INCLINATION": 97.4631, "RA_OF_ASC_NODE": 167.0136, "ARG_OF_PERICENTER": 303.7498, "MEAN_ANOMALY": 56.324, "EPHEMERIS_TYPE": 0, "CLASSIFICATION_TYPE": "U", "NORAD_CAT_ID": 58700, "ELEMENT_SET_NO": 999, "REV_AT_EPOCH": 10716, "BSTAR": 0.00086402607, "MEAN_MOTION_DOT": 0.00021326, "MEAN_MOTION_DDOT": 0}, "tle": {"line1": "1 58700U 24004A   25345.53935811  .00021326  00000+0  86403-3 0  9991", "line2": "2 58700  97.4631 167.0136 0005243 303.7498  56.3240 15.24670451107164"}}, "geometry": {"type": "Point", "coordinates": [178.1366430589508, -45.74169011161721]}}, {"type": "Feature", "properties": {"norad_id": 58701, "name": "TIANMU-1 16", "group": "weather", "lat": 32.64895252965275, "lon": 164.977334098132, "alt_km": 491.31456296777196, "timestamp": "2025-12-14T22:38:40.403723+00:00", "meta": {"OBJECT_NAME": "TIANMU-1 16", "OBJECT_ID": "2024-004B", "EPOCH": "2025-12-14T08:19:20.826048", "MEAN_MOTION": 15.24461326, "ECCENTRICITY": 0.00044156, "INCLINATION": 97.4568, "RA_OF_ASC_NODE": 169.1975, "ARG_OF_PERICENTER": 289.6512, "MEAN_ANOMALY": 70.4249, "EPHEMERIS_TYPE": 0, "CLASSIFICATION_TYPE": "U", "NORAD_CAT_ID": 58701, "ELEMENT_SET_NO": 999, "REV_AT_EPOCH": 10759, "BSTAR": 0.00030935093, "MEAN_MOTION_DOT": 7.527e-05, "MEAN_MOTION_DDOT": 0}, "tle": {"line1": "1 58701U 24004B   25348.34676882  .00007527  00000+0  30935-3 0  9990", "line2": "2 58701  97.4568 169.1975 0004415 289.6512  70.4249 15.24461326107599"}}, "geometry": {"type": "Point", "coordinates": [164.977334098132, 32.64895252965275]}}, {"type": "Feature", "properties": {"norad_id": 58702, "name": "TIANMU-1 17", "group": "weather", "lat": 61.19437099611895, "lon": 3.988902501360636, "alt_km": 488.7961995540127, "timestamp": "2025-12-14T22:38:40.403733+00:00", "meta": {"OBJECT_NAME": "TIANMU-1 17", "OBJECT_ID": "2024-004C", "EPOCH": "2025-12-14T07:57:05.958144", "MEAN_MOTION": 15.24505176, "ECCENTRICITY": 0.00036246, "INCLINATION": 97.4602, "RA_OF_ASC_NODE": 169.5931, "ARG_OF_PERICENTER": 292.8202, "MEAN_ANOMALY": 67.2652, "EPHEMERIS_TYPE": 0, "CLASSIFICATION_TYPE": "U", "NORAD_CAT_ID": 58702, "ELEMENT_SET_NO": 999, "REV_AT_EPOCH": 10758, "BSTAR": 0.00032882968, "MEAN_MOTION_DOT": 8.016e-05, "MEAN_MOTION_DDOT": 0}, "tle": {"line1": "1 58702U 24004C   25348.33131896  .00008016  00000+0  32883-3 0  9999", "line2": "2 58702  97.4602 169.5931 0003624 292.8202  67.2652 15.24505176107581"}}, "geometry": {"type": "Point", "coordinates": [3.988902501360636, 61.19437099611895]}}, {"type": "Feature", "properties": {"norad_id": 58703, "name": "TIANMU-1 18", "group": "weather", "lat": -29.075351599189148, "lon": -13.780987190563858, "alt_km": 497.95776364154153, "timestamp": "2025-12-14T22:38:40.403743+00:00", "meta": {"OBJECT_NAME": "TIANMU-1 18", "OBJECT_ID": "2024-004D", "EPOCH": "2025-12-14T07:33:05.565600", "MEAN_MOTION": 15.24491781, "ECCENTRICITY": 0.00029678, "INCLINATION": 97.462, "RA_OF_ASC_NODE": 169.7721, "ARG_OF_PERICENTER": 293.0076, "MEAN_ANOMALY": 67.0848, "EPHEMERIS_TYPE": 0, "CLASSIFICATION_TYPE": "U", "NORAD_CAT_ID": 58703, "ELEMENT_SET_NO": 999, "REV_AT_EPOCH": 10758, "BSTAR": 0.00031827271, "MEAN_MOTION_DOT": 7.753e-05, "MEAN_MOTION_DDOT": 0}, "tle": {"line1": "1 58703U 24004D   25348.31464775  .00007753  00000+0  31827-3 0  9997", "line2": "2 58703  97.4620 169.7721 0002967 293.0076  67.0848 15.24491781107583"}}, "geometry": {"type": "Point", "coordinates": [-13.780987190563858, -29.075351599189148]}}, {"type": "Feature", "properties": {"norad_id": 58990, "name": "INSAT-3DS", "group": "weather", "lat": 0.02370003240497895, "lon": 145.58828836817347, "alt_km": 35788.43777305896, "timestamp": "2025-12-14T22:38:40.403755+00:00", "meta": {"OBJECT_NAME": "INSAT-3DS", "OBJECT_ID": "2024-033A", "EPOCH": "2025-12-14T03:32:09.254976", "MEAN_MOTION": 1.00272568, "ECCENTRICITY": 0.00012376, "INCLINATION": 0.0433, "RA_OF_ASC_NODE": 132.5112, "ARG_OF_PERICENTER": 132.2084, "MEAN_ANOMALY": 313.4745, "EPHEMERIS_TYPE": 0, "CLASSIFICATION_TYPE": "U", "NORAD_CAT_ID": 58990, "ELEMENT_SET_NO": 999, "REV_AT_EPOCH": 4521, "BSTAR": 0, "MEAN_MOTION_DOT": -1.39e-06, "MEAN_MOTION_DDOT": 0}, "tle": {"line1": "1 58990U 24033A   25348.14732934 -.00000139  00000+0  00000+0 0  9990", "line2": "2 58990   0.0433 132.5112 0001237 132.2084 313.4745  1.00272568 45211"}}, "geometry": {"type": "Point", "coordinates": [145.58828836817347, 0.02370003240497895]}}, {"type": "Feature", "properties": {"norad_id": 59051, "name": "METEOR-M2 4", "group": "weather", "lat": -63.276334022515734, "lon": -36.52610823656233, "alt_km": 821.6663489774564, "timestamp": "2025-12-14T22:38:40.403766+00:00", "meta": {"OBJECT_NAME": "METEOR-M2 4", "OBJECT_ID": "2024-039A", "EPOCH": "2025-12-14T07:45:12.237120", "MEAN_MOTION": 14.22401636, "ECCENTRICITY": 0.00069545, "INCLINATION": 98.6767, "RA_OF_ASC_NODE": 305.2071, "ARG_OF_PERICENTER": 354.0416, "MEAN_ANOMALY": 6.0678, "EPHEMERIS_TYPE": 0, "CLASSIFICATION_TYPE": "U", "NORAD_CAT_ID": 59051, "ELEMENT_SET_NO": 999, "REV_AT_EPOCH": 9298, "BSTAR": 5.1266945e-05, "MEAN_MOTION_DOT": 7.1e-07, "MEAN_MOTION_DDOT": 0}, "tle": {"line1": "1 59051U 24039A   25348.32305830  .00000071  00000+0  51267-4 0  9996", "line2": "2 59051  98.6767 305.2071 0006954 354.0416   6.0678 14.22401636 92984"}}, "geometry": {"type": "Point", "coordinates": [-36.52610823656233, -63.276334022515734]}}, {"type": "Feature", "properties": {"norad_id": 60133, "name": "GOES 19", "group": "weather", "lat": -0.00024999905168325527, "lon": -11.67993216193821, "alt_km": 35782.155948534084, "timestamp": "2025-12-14T22:38:40.403778+00:00", "meta": {"OBJECT_NAME": "GOES 19", "OBJECT_ID": "2024-119A", "EPOCH": "2025-12-14T06:12:46.369728", "MEAN_MOTION": 1.00270195, "ECCENTRICITY": 0.0001236, "INCLINATION": 0.0096, "RA_OF_ASC_NODE": 97.0826, "ARG_OF_PERICENTER": 219.9983, "MEAN_ANOMALY": 144.0961, "EPHEMERIS_TYPE": 0, "CLASSIFICATION_TYPE": "U", "NORAD_CAT_ID": 60133, "ELEMENT_SET_NO": 999, "REV_AT_EPOCH": 511, "BSTAR": 0, "MEAN_MOTION_DOT": -2.3e-06, "MEAN_MOTION_DDOT": 0}, "tle": {"line1": "1 60133U 24119A   25348.25887002 -.00000230  00000+0  00000+0 0  9998", "line2": "2 60133   0.0096  97.0826 0001236 219.9983 144.0961  1.00270195  5112"}}, "geometry": {"type": "Point", "coordinates": [-11.67993216193821, -0.00024999905168325527]}}, {"type": "Feature", "properties": {"norad_id": 65815, "name": "FENGYUN 3H", "group": "weather", "lat": 24.96713361082655, "lon": 112.55447494710785, "alt_km": 824.6600789169697, "timestamp": "2025-12-14T22:38:40.403791+00:00", "meta": {"OBJECT_NAME": "FENGYUN 3H", "OBJECT_ID": "2025-219A", "EPOCH": "2025-12-14T06:41:52.504224", "MEAN_MOTION": 14.1990532, "ECCENTRICITY": 6.388e-05, "INCLINATION": 98.6585, "RA_OF_ASC_NODE": 287.8361, "ARG_OF_PERICENTER": 96.0797, "MEAN_ANOMALY": 264.0453, "EPHEMERIS_TYPE": 0, "CLASSIFICATION_TYPE": "U", "NORAD_CAT_ID": 65815, "ELEMENT_SET_NO": 999, "REV_AT_EPOCH": 1114, "BSTAR": 8.904456e-05, "MEAN_MOTION_DOT": 1.46e-06, "MEAN_MOTION_DDOT": 0}, "tle": {"line1": "1 65815U 25219A   25348.27907991  .00000146  00000+0  89045-4 0  9990", "line2": "2 65815  98.6585 287.8361 0000638  96.0797 264.0453 14.19905320 11143"}}, "geometry": {"type": "Point", "coordinates": [112.55447494710785, 24.96713361082655]}}]}